{"type":"FeatureCollection","features":[{"type":"Feature","properties":{"featureKind":"province-border","province":"Aelvanyr","borderColor":"#E6194B"},"geometry":{"type":"Polygon","coordinates":[[[278.5546440022719,468.2169228712969],[218.84232899122466,441.30390599616817],[226.0487157781452,425.5123022565646],[312.2721594495764,303.1942706423264],[398.4956031210076,180.87623902808815],[414.6200203912344,176.56214680908695],[430.7444376614611,172.24805459008567],[430.3234549678109,228.72134094946796],[429.9024722741608,285.19462730885016],[468.339128776415,265.3333946219571],[390.19580384831914,363.5195378910156],[382.89277706174414,351.24403129352373],[375.5897502751691,338.9685246960319],[313.00653876702205,406.57847882331464],[278.5546440022719,468.2169228712969]]]}},{"type":"Feature","properties":{"featureKind":"province-border","province":"Aelwynora","borderColor":"#3CB44B"},"geometry":{"type":"Polygon","coordinates":[[[1147.8264004057469,290.7738700230849],[1158.361816085877,296.133689318448],[1168.897231766007,301.493508613811],[1172.5788359924093,327.2664353517225],[1175.7121653194788,359.7918041966153],[1131.1236580766033,396.24822334198745],[1093.063692186489,385.22460903193746],[1075.7816130228414,369.37071799629666],[1054.9630184089333,368.81036856419104],[1095.4184028858642,289.2587976119385],[1134.08711272361,213.0460067790757],[1159.1387508935795,211.65886672975375],[1184.1903890635488,210.27172668043184],[1177.7458020579008,255.31804242737238],[1147.8264004057469,290.7738700230849]]]}},{"type":"Feature","properties":{"featureKind":"province-border","province":"Astraevos","borderColor":"#4363D8"},"geometry":{"type":"Polygon","coordinates":[[[710.0302460892838,728.1902340433139],[730.1663093224714,745.273263422512],[750.3023725556593,762.3562928017088],[725.909142027743,801.9460067228424],[677.8799125625383,832.1382823532509],[636.7365290625775,842.3962366377766],[616.2037343615117,888.996344008548],[601.1836490949337,739.9595187093448],[595.6791914831214,682.412893602474],[614.5957825035794,664.4527359152102],[633.5123735240375,646.492578227946],[649.2418358201093,618.2516251956223],[664.9712981161814,590.010672163298],[720.9436245692807,680.5729161961499],[710.0302460892838,728.1902340433139]]]}},{"type":"Feature","properties":{"featureKind":"province-border","province":"Bravelyn","borderColor":"#F58231"},"geometry":{"type":"Polygon","coordinates":[[[1589.5929858469485,540.2319270803587],[1589.6093432847947,497.79962809628665],[1594.6234667192064,469.4370465837989],[1615.2853191485958,481.3331513563367],[1624.0665686797504,482.5197251656995],[1656.1367335063178,467.0780540729189],[1661.8834748485676,458.7046657017015],[1695.7931356815868,524.2562611903],[1697.918063728298,547.3534071485986],[1689.25053622368,607.6443778902519],[1658.1814994924032,671.3298539212346],[1624.3086881327533,694.447268396918],[1602.794138700674,689.9707451266975],[1576.9445142162356,568.3468660466756],[1589.5929858469485,540.2319270803587]]]}},{"type":"Feature","properties":{"featureKind":"province-border","province":"Ceulrithan","borderColor":"#911EB4"},"geometry":{"type":"Polygon","coordinates":[[[1618.0643451026313,325.1572803557875],[1577.0684852983056,370.9099275750059],[1534.1480090399325,428.7302646685525],[1501.244878342524,389.4171554127512],[1484.6745200008238,379.2335408485192],[1462.750116564917,337.91429874477757],[1438.4792029050463,275.744868854829],[1464.9833294938478,254.01316543567748],[1495.0287326974194,216.2927001451602],[1531.0918894893477,198.32040767022576],[1570.0696211303136,166.71839907177193],[1585.172241084478,253.43872538033708],[1590.7820671405568,292.3041983492213],[1612.8006061542994,282.4162674873829],[1618.0643451026313,325.1572803557875]]]}},{"type":"Feature","properties":{"featureKind":"province-border","province":"Drakmorren","borderColor":"#46F0F0"},"geometry":{"type":"Polygon","coordinates":[[[1976.93260800848,777.0565817530716],[1976.3696306245174,804.5710800489951],[1972.246602256556,822.1601988217786],[1964.000484780017,847.4080685721042],[1964.0361863579021,864.1971879093844],[1972.2519378591082,924.2494771899851],[1858.5858809878353,846.5166742086633],[1830.3029983227352,722.9820792130037],[1810.7292330469875,710.1204205446064],[1824.3666375177386,703.6977234967928],[1856.486807046102,711.8889049464651],[1917.5493630135732,746.0591684999476],[1923.1307405674052,680.6813453282023],[1969.4645784999339,734.6471783558886],[1976.93260800848,777.0565817530716]]]}},{"type":"Feature","properties":{"featureKind":"province-border","province":"Earrorim","borderColor":"#F032E6"},"geometry":{"type":"Polygon","coordinates":[[[1428.0432954737819,630.1199517913907],[1429.321245373425,604.2210893924273],[1430.5991952730683,578.3222269934639],[1423.401753090383,554.2897189460209],[1416.2043109076976,530.2572108985778],[1424.70307648109,501.6485294768082],[1433.2018420544819,473.03984805503853],[1453.036597908345,510.14010064425213],[1472.8713537622077,547.2403532334657],[1497.0568780786132,593.1472960235952],[1521.2424023950184,639.0542388137249],[1510.9061926158818,673.7926227955778],[1485.1448159110466,695.1517467630692],[1463.9914851194012,674.5457328392546],[1428.0432954737819,630.1199517913907]]]}},{"type":"Feature","properties":{"featureKind":"province-border","province":"El'dravire Riverrealm","borderColor":"#BCF60C"},"geometry":{"type":"Polygon","coordinates":[[[683.5219524687748,511.21635759566965],[681.8574068572453,478.2534494960234],[691.7533713211805,453.55542974220117],[741.7304265997627,451.8795241036077],[816.3516290861571,491.8387441724244],[847.5783946885917,480.0933066301124],[850.9585667804323,452.9112025813005],[867.0575945949183,435.26868958052944],[869.7945700323058,426.4346736970759],[901.7643032238836,417.16656088354625],[904.6123613725555,440.18144091131745],[891.7965444021363,477.59299794085723],[900.9786503516116,513.452572193439],[786.3999615537767,556.6709615830073],[683.5219524687748,511.21635759566965]]]}},{"type":"Feature","properties":{"featureKind":"province-border","province":"Eldermere","borderColor":"#FABEBE"},"geometry":{"type":"Polygon","coordinates":[[[528.8464054560028,339.68090718236596],[547.6542049335385,304.0150722440269],[616.4980048838256,276.0202244569842],[656.3878977426846,193.4062923533138],[679.5160019944559,200.87223080334064],[712.2196701838225,235.36640894015153],[692.3822812213365,258.64757383079944],[656.1843730493569,282.87105242518567],[635.8674643844543,292.8803426113243],[605.2006344453544,302.92447916835874],[558.2754089098873,377.1141961715611],[535.5074599439556,379.5938886948899],[525.0331012440952,374.5430266299239],[514.2749089680707,365.5380822655517],[528.8464054560028,339.68090718236596]]]}},{"type":"Feature","properties":{"featureKind":"province-border","province":"Falthrakar","borderColor":"#008080"},"geometry":{"type":"Polygon","coordinates":[[[821.1773187068558,977.9833342644521],[792.6058917424606,984.1340933783027],[760.2613533140399,991.927655270607],[730.3678710777742,953.4616601001094],[694.4636004381573,907.9681644366126],[733.870976945861,883.4115632573357],[766.4936726255864,861.601240682047],[865.9885555122701,869.5345738192912],[965.4834383989541,877.4679069565356],[969.3075038957725,886.1781850056672],[973.131569392591,894.8884630547988],[980.8568745483265,917.0811053777107],[988.582179704062,939.2737477006227],[890.940145155261,961.2017289181297],[821.1773187068558,977.9833342644521]]]}},{"type":"Feature","properties":{"featureKind":"province-border","province":"Gruddirynn","borderColor":"#E6BEFF"},"geometry":{"type":"Polygon","coordinates":[[[1120.4360462955074,468.49783260513215],[1124.9991172941207,492.2838975478583],[1129.5621882927342,516.0699624905851],[1116.4682446430797,536.8939547789381],[1103.3743009934258,557.7179470672912],[1073.228032769508,609.6572847868883],[1044.1461666085968,578.8227694846518],[994.6547458802336,499.61347614431423],[949.7957365090563,432.76921882532343],[949.5158182906985,422.65088900761384],[969.2934921795419,431.52950120364073],[992.7462756252405,431.03755605474555],[1015.9279336214031,430.9929051865032],[1069.4241676635195,436.2656492609585],[1120.4360462955074,468.49783260513215]]]}},{"type":"Feature","properties":{"featureKind":"province-border","province":"Iazethas","borderColor":"#9A6324"},"geometry":{"type":"Polygon","coordinates":[[[196.75574619659864,617.4576022751926],[175.13131540050006,691.9143991341764],[153.0016627386664,745.5882511001505],[128.05491310501984,731.5233133456064],[97.65345149946639,716.0609794574762],[66.20978228658157,729.182547711564],[41.24472950822204,722.6919300485221],[32.80536354890182,690.729451745342],[24.365997589581752,658.766973442162],[27.9850711469241,604.0833392287614],[25.39415585689578,552.1513704555167],[97.31650321459182,514.5311824935375],[171.43827980498008,517.6714233538914],[206.7375428215669,582.1261695414339],[196.75574619659864,617.4576022751926]]]}},{"type":"Feature","properties":{"featureKind":"province-border","province":"Jor’maelis","borderColor":"#FFFAC8"},"geometry":{"type":"Polygon","coordinates":[[[247.89567549340381,152.51852777457722],[237.25189776435596,178.07149686485195],[245.36313167851975,227.1004352661497],[253.43405457758757,245.5112459730737],[244.18320464467016,261.8397963011988],[157.2939727648534,255.79502466759743],[143.41577839797534,314.6549239960192],[55.03896049275596,268.6120326836072],[42.42737930509105,138.86778396534112],[163.1121901514505,50.57476045343782],[273.12354813688927,56.90672575780057],[313.5675927071284,92.7414092784834],[363.35023562557745,91.90556838269853],[327.5404227041863,174.6261353018299],[247.89567549340381,152.51852777457722]]]}},{"type":"Feature","properties":{"featureKind":"province-border","province":"Kaelvorrin","borderColor":"#800000"},"geometry":{"type":"Polygon","coordinates":[[[1769.143841611426,369.6456778609832],[1754.1979174407375,389.7650318345698],[1736.0461512643446,415.55859698302305],[1709.2731430494478,397.0585592558365],[1681.4364757731817,381.8065595759163],[1691.3969875584128,364.8134170281653],[1703.4996822879787,345.394101352814],[1700.9905772205555,306.2536115262267],[1698.4814721531322,267.1131216996395],[1697.3865930106754,204.20241559894527],[1696.2917138682185,141.2917094982507],[1730.70670902441,88.11540674912533],[1765.1217041806015,34.93910399999996],[1790.5615813038223,313.45886481428187],[1769.143841611426,369.6456778609832]]]}},{"type":"Feature","properties":{"featureKind":"province-border","province":"Kharvathen","borderColor":"#AAFFC3"},"geometry":{"type":"Polygon","coordinates":[[[1384.80993619175,326.72535854119354],[1357.6327865180133,338.3021150571066],[1330.4556368442766,349.87887157301964],[1300.8932636544582,381.5912524269951],[1271.333211001476,414.5830337613752],[1250.1371964537238,413.9424265749779],[1238.641767704956,417.8373663290082],[1229.4769974430842,431.92723151918926],[1222.0434563811868,435.2643005618707],[1217.3868397669462,415.8668287181426],[1227.2557662824536,410.5385359923354],[1240.1591774034189,354.7304115034941],[1259.1609879864216,283.08156806077807],[1302.9244430345,266.2256327138471],[1384.80993619175,326.72535854119354]]]}},{"type":"Feature","properties":{"featureKind":"province-border","province":"Khorvaak","borderColor":"#808000"},"geometry":{"type":"Polygon","coordinates":[[[1906.5399302010235,535.1748374150051],[1901.8018838519145,519.2288766076508],[1902.0442103191863,500.86089145270233],[1900.3264895641564,466.7720609908324],[1885.6413959099234,425.2893620338174],[1940.839019269557,418.522523349807],[1970.7414745655026,447.90025855202805],[2025.9724773544276,464.149231205247],[2022.203096391212,523.6704235512483],[2021.7841750038338,565.7878517061641],[2001.7630535335622,588.4367245154966],[1965.745831103177,582.174870789732],[1953.1216633627073,550.5667974049762],[1943.3334329031482,544.0235126475142],[1906.5399302010235,535.1748374150051]]]}},{"type":"Feature","properties":{"featureKind":"province-border","province":"Lun’tharavé","borderColor":"#FFD8B1"},"geometry":{"type":"Polygon","coordinates":[[[603.0455765057028,514.8831514006267],[596.173965474472,563.0055466091417],[571.22052850948,599.506197359349],[557.2958458786726,614.4964742630781],[547.9290886913489,655.1638304929878],[531.2275086126904,655.8194455820384],[514.525928534032,656.4750606710891],[483.8452613097635,642.7338756378215],[465.930030683841,607.5601657756547],[436.96976222136004,559.9891401245267],[413.4417958003871,502.2922800590279],[427.5832210917377,484.805683103413],[454.4922296347372,471.1341395802598],[504.39676816288545,486.0386537854296],[603.0455765057028,514.8831514006267]]]}},{"type":"Feature","properties":{"featureKind":"province-border","province":"Marrowynd","borderColor":"#000075"},"geometry":{"type":"Polygon","coordinates":[[[932.4069915319554,259.1494765423734],[948.9588615998715,304.96282454053716],[965.5107316677877,350.7761725387011],[934.3837014829792,340.15456106931333],[903.2566712981705,329.53294959992553],[889.178763197528,301.0572279298437],[875.1008550968857,272.5815062597618],[868.6788462427963,208.29524569507302],[807.96409110286,155.0993672995819],[781.2458356775107,134.40281303471164],[783.116152469489,118.90061922642651],[793.811273025238,32.59281815056491],[954.2157799588421,124.11214049423087],[982.2745567591976,256.10138873006605],[932.4069915319554,259.1494765423734]]]}},{"type":"Feature","properties":{"featureKind":"province-border","province":"Nalvessir","borderColor":"#808080"},"geometry":{"type":"Polygon","coordinates":[[[325.0078196791603,562.2747377996211],[393.59035802373376,626.1108624860362],[446.86147674841766,671.4510746071845],[454.9286545723102,744.65480631065],[466.9176258315106,789.1314723537245],[434.5112061409267,791.5942202463415],[392.53054351040294,792.1410971054106],[350.75869897060903,751.116258391998],[292.5760273171518,760.6096733780299],[271.78092381538073,725.9526421874245],[290.33467574232463,694.9891980419279],[292.72558109296966,621.9291127904315],[265.992603831974,570.9383950800602],[288.89938489973497,531.5853825544924],[325.0078196791603,562.2747377996211]]]}},{"type":"Feature","properties":{"featureKind":"province-border","province":"Pelvoryn","borderColor":"#FF4500"},"geometry":{"type":"Polygon","coordinates":[[[1145.0366985714309,937.3620341697309],[1108.4972874881755,926.1101510476967],[1071.95787640492,914.8582679256624],[1041.320289719117,878.9003104553328],[1094.3907931530648,836.7249581924113],[1133.082783241493,803.213218682903],[1196.579849107342,849.3657316478258],[1229.5950460930435,878.2478859584011],[1258.0030956891535,904.6500516909856],[1277.271269046028,901.6574683371821],[1280.0043863012113,915.3415981885915],[1301.0117558260954,935.8376373450392],[1304.9516490293206,955.1445434297293],[1298.2008407961323,988.6995651507307],[1145.0366985714309,937.3620341697309]]]}},{"type":"Feature","properties":{"featureKind":"province-border","province":"Sylvavéryn","borderColor":"#00CED1"},"geometry":{"type":"Polygon","coordinates":[[[1939.0478791783037,255.04554791582547],[1938.911524408263,238.32694813205563],[1938.7751696382222,221.60834834828577],[1970.4022814157927,243.24447936669296],[2002.0293931933631,264.8806103851002],[2010.8824073278602,268.7705467098896],[2004.4253141781846,286.5211255319707],[2005.588176065787,291.9307606633078],[2006.063072258617,298.9566357333259],[2007.053700104517,314.44537951524325],[2007.0895008288842,330.1347163749215],[2014.8736578849928,354.1501055409447],[2008.7055179488716,352.6579018540317],[1874.3879716908298,298.743071706182],[1939.0478791783037,255.04554791582547]]]}},{"type":"Feature","properties":{"featureKind":"province-border","province":"Thalryss","borderColor":"#FF1493"},"geometry":{"type":"Polygon","coordinates":[[[1181.223727247672,665.6455657237951],[1198.5906348493495,658.7008889172037],[1239.5848340393268,654.81582776856],[1290.3333891462805,661.5680334618783],[1311.8748718396268,674.1635808238648],[1336.5898594278628,693.2579302240648],[1305.5933215789098,731.9116167585149],[1287.40394738889,721.0328167561291],[1276.5947717183253,679.0834245115552],[1223.5813695754384,696.7343785782475],[1172.9987151597688,721.0638320794229],[1129.2798505172584,748.575673596759],[1078.871613355052,672.8312630240594],[1152.4405163784618,655.0941011092783],[1181.223727247672,665.6455657237951]]]}},{"type":"Feature","properties":{"featureKind":"province-border","province":"Vaelmyrith","borderColor":"#32CD32"},"geometry":{"type":"Polygon","coordinates":[[[1801.5383017513952,461.8691757605654],[1845.6506816220965,539.0495750982411],[1870.7189385047523,591.3876534231041],[1834.8513082229247,583.9378425635931],[1820.7537193164562,590.5412220117956],[1828.2194390464363,635.9195172823945],[1817.9130747797406,656.1875382276967],[1808.63125490165,647.0118468121835],[1788.2181777725361,662.9190698273634],[1783.2802976579299,633.6637590582784],[1753.4170218086708,635.5030551485582],[1743.9447337009276,612.7670984054491],[1764.5284382866166,510.2147076832926],[1782.060336342389,499.48091647526167],[1801.5383017513952,461.8691757605654]]]}},{"type":"Feature","properties":{"featureKind":"province-border","province":"Valerune","borderColor":"#1E90FF"},"geometry":{"type":"Polygon","coordinates":[[[978.084074688039,667.620822997197],[1010.276885100048,684.3585318324355],[1030.0052725148155,743.595571386833],[993.9060020659889,746.9960392608801],[963.5881285516438,752.9400656587007],[936.1422174948354,754.8325741184537],[914.6387231434339,756.3338517115349],[833.3707495647488,738.5968215545468],[805.0463500564261,745.5885176133106],[810.658239638597,729.415451116227],[837.3354140730709,699.4295156039075],[844.9015636463168,649.2716609431814],[901.2273152482085,626.9146445587792],[940.3455234663799,647.5555316440118],[978.084074688039,667.620822997197]]]}},{"type":"Feature","properties":{"featureKind":"province-border","province":"Virelport","borderColor":"#FFD700"},"geometry":{"type":"Polygon","coordinates":[[[1321.446986165374,173.66481859347482],[1178.924250031687,120.76552064757965],[1146.0070656237,49.774030427020385],[1190.2492374297008,48.783350614018325],[1226.646321228964,48.63509586820539],[1268.6381250313555,35.45705363752383],[1281.3457129467108,21.309226284754928],[1369.2396796772125,33.9981627568058],[1378.2281988703737,60.80208634391558],[1377.9271492589824,73.24120024027698],[1387.5482365128194,85.45770672900147],[1439.703519269215,129.79893980059734],[1433.6580981974892,148.47214970789048],[1377.5168864230805,180.32670279337992],[1321.446986165374,173.66481859347482]]]}},{"type":"Feature","properties":{"featureKind":"province-border","province":"Vuelmora","borderColor":"#8B4513"},"geometry":{"type":"Polygon","coordinates":[[[1386.4698943597928,952.545981183714],[1364.1410139549355,908.6347841698516],[1383.7082166550506,860.8377661203045],[1367.390071321756,813.5299242272827],[1397.7457447201366,816.8451410106759],[1417.6794034964864,794.6403123124804],[1461.625787882929,771.4757982663996],[1492.0152431233478,756.8220404401537],[1533.6586989718576,757.7542159632211],[1544.5785679599119,892.5094321274298],[1556.1434473152244,973.5903387277139],[1523.2751227568667,944.854382028806],[1464.1199421615856,937.116240837007],[1403.968047465899,926.123287029404],[1386.4698943597928,952.545981183714]]]}},{"type":"Feature","properties":{"featureKind":"province-border","province":"Zal’tharuun","borderColor":"#7FFF00"},"geometry":{"type":"Polygon","coordinates":[[[1763.8266303341932,800.6755181232983],[1771.6032809475703,834.0179310282605],[1783.8214114495677,896.096609478499],[1782.5671849621956,923.8799068042807],[1780.1816425791098,951.0463040962879],[1748.7476943797828,937.3787796040727],[1723.7454960781222,949.9527745212218],[1707.0927139835305,972.2104878011417],[1692.5101186081029,1000.572512],[1665.0834252115476,836.006907563279],[1684.3351883694345,733.1981247230864],[1719.09167761016,718.3211850944788],[1738.4012001672309,756.5595994286003],[1749.3909085619273,797.3630041779371],[1763.8266303341932,800.6755181232983]]]}},{"type":"Feature","properties":{"featureKind":"province-border","province":"Zharvokh","borderColor":"#DC143C"},"geometry":{"type":"Polygon","coordinates":[[[1252.0219324625837,468.93986574800726],[1310.889371481256,472.5437508394827],[1369.756810499928,476.14763593095813],[1355.8956383991344,497.723954066903],[1342.0344662983407,519.3002722028479],[1347.4989330479616,530.7701027930725],[1352.9633997975825,542.2399333832973],[1327.826861087441,546.780062647158],[1302.6903223772997,551.3201919110189],[1267.7177268416117,545.107373369769],[1232.7451313059237,538.8945548285191],[1240.6175061686645,521.765021546376],[1248.489881031405,504.63548826423306],[1207.7853525342002,490.40957024613516],[1252.0219324625837,468.93986574800726]]]}}]}
