{"type":"FeatureCollection","features":[{"type":"Feature","properties":{"featureKind":"province-center-pin","province":"Aelvanyr","name":"Aelvanyr","color":"#E6194B"},"geometry":{"type":"Point","coordinates":[346.8479884395203,322.45154956548583]}},{"type":"Feature","properties":{"featureKind":"province-center-pin","province":"Aelwynora","name":"Aelwynora","color":"#3CB44B"},"geometry":{"type":"Point","coordinates":[1129.2098719975347,310.48168930940585]}},{"type":"Feature","properties":{"featureKind":"province-center-pin","province":"Astraevos","name":"Astraevos","color":"#4363D8"},"geometry":{"type":"Point","coordinates":[661.9985466727387,736.5828632535562]}},{"type":"Feature","properties":{"featureKind":"province-center-pin","province":"Bravelyn","name":"Bravelyn","color":"#F58231"},"geometry":{"type":"Point","coordinates":[1641.3924747090462,575.3378689338091]}},{"type":"Feature","properties":{"featureKind":"province-center-pin","province":"Ceulrithan","name":"Ceulrithan","color":"#911EB4"},"geometry":{"type":"Point","coordinates":[1530.8846467439312,299.71578237941907]}},{"type":"Feature","properties":{"featureKind":"province-center-pin","province":"Drakmorren","name":"Drakmorren","color":"#46F0F0"},"geometry":{"type":"Point","coordinates":[1910.4704398439885,796.4891304457258]}},{"type":"Feature","properties":{"featureKind":"province-center-pin","province":"Earrorim","name":"Earrorim","color":"#F032E6"},"geometry":{"type":"Point","coordinates":[1464.1311579472615,598.4362283916806]}},{"type":"Feature","properties":{"featureKind":"province-center-pin","province":"El'dravire Riverrealm","name":"El'dravire Riverrealm","color":"#BCF60C"},"geometry":{"type":"Point","coordinates":[836.9048890141403,519.4922298489466]}},{"type":"Feature","properties":{"featureKind":"province-center-pin","province":"Eldermere","name":"Eldermere","color":"#FABEBE"},"geometry":{"type":"Point","coordinates":[608.0547495580971,294.3322707236911]}},{"type":"Feature","properties":{"featureKind":"province-center-pin","province":"Falthrakar","name":"Falthrakar","color":"#008080"},"geometry":{"type":"Point","coordinates":[837.1999433204782,919.9437138468384]}},{"type":"Feature","properties":{"featureKind":"province-center-pin","province":"Gruddirynn","name":"Gruddirynn","color":"#E6BEFF"},"geometry":{"type":"Point","coordinates":[1044.4708952530007,514.10377460554]}},{"type":"Feature","properties":{"featureKind":"province-center-pin","province":"Iazethas","name":"Iazethas","color":"#9A6324"},"geometry":{"type":"Point","coordinates":[110.75835353504426,634.2977554916165]}},{"type":"Feature","properties":{"featureKind":"province-center-pin","province":"Jor’maelis","name":"Jor’maelis","color":"#FFFAC8"},"geometry":{"type":"Point","coordinates":[190.74590168746496,147.31483107556778]}},{"type":"Feature","properties":{"featureKind":"province-center-pin","province":"Kaelvorrin","name":"Kaelvorrin","color":"#800000"},"geometry":{"type":"Point","coordinates":[1739.903505976206,242.51864760786816]}},{"type":"Feature","properties":{"featureKind":"province-center-pin","province":"Kharvathen","name":"Kharvathen","color":"#AAFFC3"},"geometry":{"type":"Point","coordinates":[1289.6698714119852,340.465880114227]}},{"type":"Feature","properties":{"featureKind":"province-center-pin","province":"Khorvaak","name":"Khorvaak","color":"#808000"},"geometry":{"type":"Point","coordinates":[1971.7494313237958,514.5881986546956]}},{"type":"Feature","properties":{"featureKind":"province-center-pin","province":"Lun’tharavé","name":"Lun’tharavé","color":"#FFD8B1"},"geometry":{"type":"Point","coordinates":[491.4859300688208,552.0585853894131]}},{"type":"Feature","properties":{"featureKind":"province-center-pin","province":"Marrowynd","name":"Marrowynd","color":"#000075"},"geometry":{"type":"Point","coordinates":[887.8268153051228,178.11683483104568]}},{"type":"Feature","properties":{"featureKind":"province-center-pin","province":"Nalvessir","name":"Nalvessir","color":"#808080"},"geometry":{"type":"Point","coordinates":[360.34961493871225,682.6845880246085]}},{"type":"Feature","properties":{"featureKind":"province-center-pin","province":"Pelvoryn","name":"Pelvoryn","color":"#FF4500"},"geometry":{"type":"Point","coordinates":[1174.7545663225897,898.9314096088145]}},{"type":"Feature","properties":{"featureKind":"province-center-pin","province":"Sylvavéryn","name":"Sylvavéryn","color":"#00CED1"},"geometry":{"type":"Point","coordinates":[1958.0938233251788,291.97254179687286]}},{"type":"Feature","properties":{"featureKind":"province-center-pin","province":"Thalryss","name":"Thalryss","color":"#FF1493"},"geometry":{"type":"Point","coordinates":[1196.9916201220533,690.1997849650371]}},{"type":"Feature","properties":{"featureKind":"province-center-pin","province":"Vaelmyrith","name":"Vaelmyrith","color":"#32CD32"},"geometry":{"type":"Point","coordinates":[1798.5369741798227,568.4500395096113]}},{"type":"Feature","properties":{"featureKind":"province-center-pin","province":"Valerune","name":"Valerune","color":"#1E90FF"},"geometry":{"type":"Point","coordinates":[918.7173227643309,701.0166027935485]}},{"type":"Feature","properties":{"featureKind":"province-center-pin","province":"Virelport","name":"Virelport","color":"#FFD700"},"geometry":{"type":"Point","coordinates":[1299.3472243556382,100.5764719879094]}},{"type":"Feature","properties":{"featureKind":"province-center-pin","province":"Vuelmora","name":"Vuelmora","color":"#8B4513"},"geometry":{"type":"Point","coordinates":[1466.373177970405,860.8434193215804]}},{"type":"Feature","properties":{"featureKind":"province-center-pin","province":"Zal’tharuun","name":"Zal’tharuun","color":"#7FFF00"},"geometry":{"type":"Point","coordinates":[1705.9398579585345,853.7375894300986]}},{"type":"Feature","properties":{"featureKind":"province-center-pin","province":"Zharvokh","name":"Zharvokh","color":"#DC143C"},"geometry":{"type":"Point","coordinates":[1293.3911189955047,507.3841698380087]}}]}
