{"type":"FeatureCollection","features":[{"type":"Feature","properties":{"featureKind":"territory-border","province":"Aelvanyr","territory":"Wildbloom","borderColor":"#E6194B","squareMiles":206232.76,"squareKilometers":534140.4,"anchorCount":6},"geometry":{"type":"Polygon","coordinates":[[[405.89315796625664,415.2679676123388],[405.9964977718553,389.9217832828565],[421.6506478905024,372.0490471694907],[443.80769087926785,380.87449215776803],[447.84442011679863,405.810196386018],[430.8911199300681,419.2442382514147],[405.89315796625664,415.2679676123388]]]}},{"type":"Feature","properties":{"featureKind":"territory-border","province":"Aelwynora","territory":"Elarion Pastures","borderColor":"#3CB44B","squareMiles":212603.27,"squareKilometers":550639.95,"anchorCount":6},"geometry":{"type":"Polygon","coordinates":[[[1371.8931579662567,613.2679676123388],[1371.9964977718553,587.9217832828565],[1387.6506478905026,570.0490471694907],[1409.807690879268,578.8744921577681],[1413.8444201167988,603.8101963860181],[1396.891119930068,617.2442382514147],[1371.8931579662567,613.2679676123388]]]}},{"type":"Feature","properties":{"featureKind":"territory-border","province":"Aelwynora","territory":"Sylvarûn","borderColor":"#3CB44B","squareMiles":74145.47,"squareKilometers":192035.88,"anchorCount":6},"geometry":{"type":"Polygon","coordinates":[[[1065.8931579662567,130.26796761233877],[1065.9964977718553,104.92178328285645],[1081.6506478905026,87.04904716949066],[1103.807690879268,95.87449215776809],[1107.8444201167988,120.8101963860181],[1090.891119930068,134.24423825141469],[1065.8931579662567,130.26796761233877]]]}},{"type":"Feature","properties":{"featureKind":"territory-border","province":"Aelwynora","territory":"Sylvéraith","borderColor":"#3CB44B","squareMiles":35034.08,"squareKilometers":90737.84,"anchorCount":6},"geometry":{"type":"Polygon","coordinates":[[[1395.8931579662567,70.26796761233877],[1395.9964977718553,44.92178328285645],[1411.6506478905026,27.049047169490656],[1433.807690879268,35.874492157768096],[1437.8444201167988,60.81019638601809],[1420.891119930068,74.24423825141467],[1395.8931579662567,70.26796761233877]]]}},{"type":"Feature","properties":{"featureKind":"territory-border","province":"Aelwynora","territory":"Ulwyn","borderColor":"#3CB44B","squareMiles":48926.66,"squareKilometers":126719.47,"anchorCount":6},"geometry":{"type":"Polygon","coordinates":[[[1437.8931579662567,91.26796761233877],[1437.9964977718553,65.92178328285647],[1453.6506478905026,48.04904716949066],[1475.807690879268,56.87449215776808],[1479.8444201167988,81.81019638601808],[1462.891119930068,95.24423825141467],[1437.8931579662567,91.26796761233877]]]}},{"type":"Feature","properties":{"featureKind":"territory-border","province":"Aelwynora","territory":"Vaelméra","borderColor":"#3CB44B","squareMiles":56777.79,"squareKilometers":147053.81,"anchorCount":6},"geometry":{"type":"Polygon","coordinates":[[[1572.8931579662567,103.26796761233877],[1572.9964977718553,77.92178328285647],[1588.6506478905026,60.04904716949066],[1610.807690879268,68.87449215776807],[1614.8444201167988,93.81019638601808],[1597.891119930068,107.24423825141467],[1572.8931579662567,103.26796761233877]]]}},{"type":"Feature","properties":{"featureKind":"territory-border","province":"Astraevos","territory":"Aelshoreth","borderColor":"#4363D8","squareMiles":126960.94,"squareKilometers":328827.33,"anchorCount":6},"geometry":{"type":"Polygon","coordinates":[[[339.89315796625664,841.2679676123388],[339.9964977718553,815.9217832828565],[355.65064789050246,798.0490471694907],[377.80769087926785,806.8744921577681],[381.84442011679863,831.8101963860181],[364.89111993006804,845.2442382514147],[339.89315796625664,841.2679676123388]]]}},{"type":"Feature","properties":{"featureKind":"territory-border","province":"Bravelyn","territory":"Qelvandra","borderColor":"#F58231","squareMiles":145953.28,"squareKilometers":378017.25,"anchorCount":6},"geometry":{"type":"Polygon","coordinates":[[[1569.8931579662567,805.2679676123388],[1569.9964977718553,779.9217832828565],[1585.6506478905026,762.0490471694907],[1607.807690879268,770.8744921577681],[1611.8444201167988,795.8101963860181],[1594.891119930068,809.2442382514147],[1569.8931579662567,805.2679676123388]]]}},{"type":"Feature","properties":{"featureKind":"territory-border","province":"Ceulrithan","territory":"Cindrau","borderColor":"#911EB4","squareMiles":213588.36,"squareKilometers":553191.3,"anchorCount":6},"geometry":{"type":"Polygon","coordinates":[[[1307.8931579662567,607.2679676123388],[1307.9964977718553,581.9217832828565],[1323.6506478905026,564.0490471694907],[1345.807690879268,572.8744921577681],[1349.8444201167988,597.8101963860181],[1332.891119930068,611.2442382514147],[1307.8931579662567,607.2679676123388]]]}},{"type":"Feature","properties":{"featureKind":"territory-border","province":"Eldermere","territory":"Cloverfen","borderColor":"#FABEBE","squareMiles":214702.04,"squareKilometers":556075.74,"anchorCount":6},"geometry":{"type":"Polygon","coordinates":[[[582.8931579662567,460.2679676123388],[582.9964977718553,434.9217832828565],[598.6506478905025,417.0490471694907],[620.8076908792679,425.87449215776815],[624.8444201167987,450.8101963860181],[607.891119930068,464.2442382514147],[582.8931579662567,460.2679676123388]]]}},{"type":"Feature","properties":{"featureKind":"territory-border","province":"Eldermere","territory":"Faelmere","borderColor":"#FABEBE","squareMiles":212326.54,"squareKilometers":549923.21,"anchorCount":6},"geometry":{"type":"Polygon","coordinates":[[[786.8931579662567,445.2679676123388],[786.9964977718553,419.9217832828565],[802.6506478905025,402.0490471694907],[824.8076908792679,410.87449215776815],[828.8444201167987,435.8101963860181],[811.891119930068,449.2442382514147],[786.8931579662567,445.2679676123388]]]}},{"type":"Feature","properties":{"featureKind":"territory-border","province":"Eldermere","territory":"Mossvale","borderColor":"#FABEBE","squareMiles":202527.39,"squareKilometers":524543.54,"anchorCount":6},"geometry":{"type":"Polygon","coordinates":[[[666.8931579662567,400.2679676123388],[666.9964977718553,374.9217832828565],[682.6506478905025,357.0490471694907],[704.8076908792679,365.87449215776815],[708.8444201167987,390.8101963860181],[691.891119930068,404.2442382514147],[666.8931579662567,400.2679676123388]]]}},{"type":"Feature","properties":{"featureKind":"territory-border","province":"Eldermere","territory":"Oakenshire","borderColor":"#FABEBE","squareMiles":190443.33,"squareKilometers":493245.97,"anchorCount":6},"geometry":{"type":"Polygon","coordinates":[[[225.89315796625664,700.2679676123388],[225.99649777185527,674.9217832828565],[241.65064789050243,657.0490471694907],[263.80769087926785,665.8744921577681],[267.84442011679863,690.810196386018],[250.89111993006807,704.2442382514147],[225.89315796625664,700.2679676123388]]]}},{"type":"Feature","properties":{"featureKind":"territory-border","province":"Eldermere","territory":"Riverbloom","borderColor":"#FABEBE","squareMiles":200924.7,"squareKilometers":520392.58,"anchorCount":6},"geometry":{"type":"Polygon","coordinates":[[[711.8931579662567,394.2679676123388],[711.9964977718553,368.9217832828565],[727.6506478905025,351.0490471694907],[749.8076908792679,359.87449215776815],[753.8444201167987,384.8101963860181],[736.891119930068,398.2442382514147],[711.8931579662567,394.2679676123388]]]}},{"type":"Feature","properties":{"featureKind":"territory-border","province":"Kaelvorrin","territory":"Myrathéa","borderColor":"#800000","squareMiles":198393.19,"squareKilometers":513836,"anchorCount":6},"geometry":{"type":"Polygon","coordinates":[[[1810.8931579662567,385.2679676123388],[1810.9964977718553,359.9217832828565],[1826.6506478905023,342.0490471694907],[1848.807690879268,350.87449215776803],[1852.8444201167988,375.81019638601805],[1835.891119930068,389.2442382514147],[1810.8931579662567,385.2679676123388]]]}},{"type":"Feature","properties":{"featureKind":"territory-border","province":"Kaelvorrin","territory":"Silver Véil","borderColor":"#800000","squareMiles":39020.75,"squareKilometers":101063.29,"anchorCount":6},"geometry":{"type":"Polygon","coordinates":[[[1513.8931579662567,76.26796761233877],[1513.9964977718553,50.92178328285646],[1529.6506478905026,33.04904716949066],[1551.807690879268,41.87449215776808],[1555.8444201167988,66.81019638601808],[1538.891119930068,80.24423825141467],[1513.8931579662567,76.26796761233877]]]}},{"type":"Feature","properties":{"featureKind":"territory-border","province":"Khorvaak","territory":"Cyraléth","borderColor":"#808000","squareMiles":49984.6,"squareKilometers":129459.53,"anchorCount":6},"geometry":{"type":"Polygon","coordinates":[[[1601.8931579662567,967.2679676123388],[1601.9964977718553,941.9217832828565],[1617.6506478905026,924.0490471694907],[1639.807690879268,932.8744921577681],[1643.8444201167988,957.8101963860181],[1626.891119930068,971.2442382514147],[1601.8931579662567,967.2679676123388]]]}},{"type":"Feature","properties":{"featureKind":"territory-border","province":"Sylvavéryn","territory":"Elaravosk","borderColor":"#00CED1","squareMiles":104647.72,"squareKilometers":271036.35,"anchorCount":6},"geometry":{"type":"Polygon","coordinates":[[[1596.8931579662567,880.2679676123388],[1596.9964977718553,854.9217832828565],[1612.6506478905026,837.0490471694907],[1634.807690879268,845.8744921577681],[1638.8444201167988,870.8101963860181],[1621.891119930068,884.2442382514147],[1596.8931579662567,880.2679676123388]]]}},{"type":"Feature","properties":{"featureKind":"territory-border","province":"Sylvavéryn","territory":"Thalavaryn","borderColor":"#00CED1","squareMiles":77063.74,"squareKilometers":199594.17,"anchorCount":6},"geometry":{"type":"Polygon","coordinates":[[[1569.8931579662567,925.2679676123388],[1569.9964977718553,899.9217832828565],[1585.6506478905026,882.0490471694907],[1607.807690879268,890.8744921577681],[1611.8444201167988,915.8101963860181],[1594.891119930068,929.2442382514147],[1569.8931579662567,925.2679676123388]]]}},{"type":"Feature","properties":{"featureKind":"territory-border","province":"Sylvavéryn","territory":"Vaerundell","borderColor":"#00CED1","squareMiles":218840.77,"squareKilometers":566795,"anchorCount":6},"geometry":{"type":"Polygon","coordinates":[[[1527.8931579662567,559.2679676123388],[1527.9964977718553,533.9217832828565],[1543.6506478905026,516.0490471694907],[1565.807690879268,524.8744921577681],[1569.8444201167988,549.8101963860181],[1552.891119930068,563.2442382514147],[1527.8931579662567,559.2679676123388]]]}},{"type":"Feature","properties":{"featureKind":"territory-border","province":"Sylvavéryn","territory":"Whemosthi","borderColor":"#00CED1","squareMiles":146651.97,"squareKilometers":379826.85,"anchorCount":6},"geometry":{"type":"Polygon","coordinates":[[[1857.8931579662567,256.2679676123388],[1857.9964977718553,230.9217832828565],[1873.6506478905023,213.04904716949065],[1895.807690879268,221.87449215776806],[1899.8444201167988,246.81019638601805],[1882.891119930068,260.2442382514147],[1857.8931579662567,256.2679676123388]]]}},{"type":"Feature","properties":{"featureKind":"territory-border","province":"Thalryss","territory":"Blackwake Isles","borderColor":"#FF1493","squareMiles":147458.73,"squareKilometers":381916.36,"anchorCount":6},"geometry":{"type":"Polygon","coordinates":[[[807.8931579662567,802.2679676123388],[807.9964977718553,776.9217832828565],[823.6506478905025,759.0490471694907],[845.8076908792679,767.8744921577681],[849.8444201167987,792.8101963860181],[832.891119930068,806.2442382514147],[807.8931579662567,802.2679676123388]]]}},{"type":"Feature","properties":{"featureKind":"territory-border","province":"Thalryss","territory":"Grimwater Reach","borderColor":"#FF1493","squareMiles":198857.43,"squareKilometers":515038.38,"anchorCount":6},"geometry":{"type":"Polygon","coordinates":[[[777.8931579662567,673.2679676123388],[777.9964977718553,647.9217832828565],[793.6506478905025,630.0490471694907],[815.8076908792679,638.8744921577681],[819.8444201167987,663.8101963860181],[802.891119930068,677.2442382514147],[777.8931579662567,673.2679676123388]]]}},{"type":"Feature","properties":{"featureKind":"territory-border","province":"Thalryss","territory":"Morvyrûn-Thal","borderColor":"#FF1493","squareMiles":95649.09,"squareKilometers":247730.02,"anchorCount":6},"geometry":{"type":"Polygon","coordinates":[[[984.8931579662567,895.2679676123388],[984.9964977718553,869.9217832828565],[1000.6506478905025,852.0490471694907],[1022.8076908792679,860.8744921577681],[1026.8444201167988,885.8101963860181],[1009.891119930068,899.2442382514147],[984.8931579662567,895.2679676123388]]]}},{"type":"Feature","properties":{"featureKind":"territory-border","province":"Thalryss","territory":"Nythalûn","borderColor":"#FF1493","squareMiles":205907.82,"squareKilometers":533298.8,"anchorCount":6},"geometry":{"type":"Polygon","coordinates":[[[729.8931579662567,646.2679676123388],[729.9964977718553,620.9217832828565],[745.6506478905025,603.0490471694907],[767.8076908792679,611.8744921577681],[771.8444201167987,636.8101963860181],[754.891119930068,650.2442382514147],[729.8931579662567,646.2679676123388]]]}},{"type":"Feature","properties":{"featureKind":"territory-border","province":"Thalryss","territory":"Thal’kazuun","borderColor":"#FF1493","squareMiles":211250.14,"squareKilometers":547135.35,"anchorCount":6},"geometry":{"type":"Polygon","coordinates":[[[741.8931579662567,439.2679676123388],[741.9964977718553,413.9217832828565],[757.6506478905025,396.0490471694907],[779.8076908792679,404.87449215776815],[783.8444201167987,429.8101963860181],[766.891119930068,443.2442382514147],[741.8931579662567,439.2679676123388]]]}},{"type":"Feature","properties":{"featureKind":"territory-border","province":"Thalryss","territory":"Vorthalass","borderColor":"#FF1493","squareMiles":148951.69,"squareKilometers":385783.11,"anchorCount":6},"geometry":{"type":"Polygon","coordinates":[[[762.8931579662567,799.2679676123388],[762.9964977718553,773.9217832828565],[778.6506478905025,756.0490471694907],[800.8076908792679,764.8744921577681],[804.8444201167987,789.8101963860181],[787.891119930068,803.2442382514147],[762.8931579662567,799.2679676123388]]]}},{"type":"Feature","properties":{"featureKind":"territory-border","province":"Vaelmyrith","territory":"Eldaréss","borderColor":"#32CD32","squareMiles":65589.08,"squareKilometers":169874.93,"anchorCount":6},"geometry":{"type":"Polygon","coordinates":[[[1007.8931579662567,943.2679676123388],[1007.9964977718553,917.9217832828565],[1023.6506478905025,900.0490471694907],[1045.807690879268,908.8744921577681],[1049.8444201167988,933.8101963860181],[1032.891119930068,947.2442382514147],[1007.8931579662567,943.2679676123388]]]}},{"type":"Feature","properties":{"featureKind":"territory-border","province":"Valerune","territory":"Brassmere Concord","borderColor":"#1E90FF","squareMiles":173550.17,"squareKilometers":449492.88,"anchorCount":6},"geometry":{"type":"Polygon","coordinates":[[[204.89315796625664,745.2679676123388],[204.99649777185527,719.9217832828565],[220.65064789050243,702.0490471694907],[242.80769087926788,710.8744921577681],[246.84442011679863,735.810196386018],[229.8911199300681,749.2442382514147],[204.89315796625664,745.2679676123388]]]}}]}
