{
  "type": "FeatureCollection",
  "name": "named_coordinate_lines",
  "features": [
    {
      "type": "Feature",
      "properties": {
        "featureKind": "named-coordinate-line",
        "coordinateType": "Longitude / Meridian",
        "line": "180° W / −180°",
        "name": "Thalunesh's Reversed Track",
        "longitude": -180.0,
        "latitude": null,
        "isUTCPrimeMeridian": false,
        "isAntimeridian": true,
        "source": "user-specified line table"
      },
      "geometry": {
        "type": "LineString",
        "coordinates": [
          [
            -180.0,
            -90
          ],
          [
            -180.0,
            90
          ]
        ]
      }
    },
    {
      "type": "Feature",
      "properties": {
        "featureKind": "named-coordinate-line",
        "coordinateType": "Longitude / Meridian",
        "line": "150° W",
        "name": "Freyseth's Crossroads Meridian",
        "longitude": -150.0,
        "latitude": null,
        "isUTCPrimeMeridian": false,
        "isAntimeridian": false,
        "source": "user-specified line table"
      },
      "geometry": {
        "type": "LineString",
        "coordinates": [
          [
            -150.0,
            -90
          ],
          [
            -150.0,
            90
          ]
        ]
      }
    },
    {
      "type": "Feature",
      "properties": {
        "featureKind": "named-coordinate-line",
        "coordinateType": "Longitude / Meridian",
        "line": "120° W",
        "name": "Nefarokir's Funeral Meridian",
        "longitude": -120.0,
        "latitude": null,
        "isUTCPrimeMeridian": false,
        "isAntimeridian": false,
        "source": "user-specified line table"
      },
      "geometry": {
        "type": "LineString",
        "coordinates": [
          [
            -120.0,
            -90
          ],
          [
            -120.0,
            90
          ]
        ]
      }
    },
    {
      "type": "Feature",
      "properties": {
        "featureKind": "named-coordinate-line",
        "coordinateType": "Longitude / Meridian",
        "line": "90° W",
        "name": "Eirzunet's Shadow Meridian",
        "longitude": -90.0,
        "latitude": null,
        "isUTCPrimeMeridian": false,
        "isAntimeridian": false,
        "source": "user-specified line table"
      },
      "geometry": {
        "type": "LineString",
        "coordinates": [
          [
            -90.0,
            -90
          ],
          [
            -90.0,
            90
          ]
        ]
      }
    },
    {
      "type": "Feature",
      "properties": {
        "featureKind": "named-coordinate-line",
        "coordinateType": "Longitude / Meridian",
        "line": "60° W",
        "name": "Bastveig's Tidegate Meridian",
        "longitude": -60.0,
        "latitude": null,
        "isUTCPrimeMeridian": false,
        "isAntimeridian": false,
        "source": "user-specified line table"
      },
      "geometry": {
        "type": "LineString",
        "coordinates": [
          [
            -60.0,
            -90
          ],
          [
            -60.0,
            90
          ]
        ]
      }
    },
    {
      "type": "Feature",
      "properties": {
        "featureKind": "named-coordinate-line",
        "coordinateType": "Longitude / Meridian",
        "line": "30° W",
        "name": "Horundar's Storm Meridian",
        "longitude": -30.0,
        "latitude": null,
        "isUTCPrimeMeridian": false,
        "isAntimeridian": false,
        "source": "user-specified line table"
      },
      "geometry": {
        "type": "LineString",
        "coordinates": [
          [
            -30.0,
            -90
          ],
          [
            -30.0,
            90
          ]
        ]
      }
    },
    {
      "type": "Feature",
      "properties": {
        "featureKind": "named-coordinate-line",
        "coordinateType": "Longitude / Meridian",
        "line": "0°",
        "name": "UTC",
        "longitude": 0.0,
        "latitude": null,
        "isUTCPrimeMeridian": true,
        "isAntimeridian": false,
        "source": "user-specified line table"
      },
      "geometry": {
        "type": "LineString",
        "coordinates": [
          [
            0.0,
            -90
          ],
          [
            0.0,
            90
          ]
        ]
      }
    },
    {
      "type": "Feature",
      "properties": {
        "featureKind": "named-coordinate-line",
        "coordinateType": "Longitude / Meridian",
        "line": "30° E",
        "name": "Raeshkul's Calculation Meridian",
        "longitude": 30.0,
        "latitude": null,
        "isUTCPrimeMeridian": false,
        "isAntimeridian": false,
        "source": "user-specified line table"
      },
      "geometry": {
        "type": "LineString",
        "coordinates": [
          [
            30.0,
            -90
          ],
          [
            30.0,
            90
          ]
        ]
      }
    },
    {
      "type": "Feature",
      "properties": {
        "featureKind": "named-coordinate-line",
        "coordinateType": "Longitude / Meridian",
        "line": "60° E",
        "name": "Sokhivar's Sunroad Meridian",
        "longitude": 60.0,
        "latitude": null,
        "isUTCPrimeMeridian": false,
        "isAntimeridian": false,
        "source": "user-specified line table"
      },
      "geometry": {
        "type": "LineString",
        "coordinates": [
          [
            60.0,
            -90
          ],
          [
            60.0,
            90
          ]
        ]
      }
    },
    {
      "type": "Feature",
      "properties": {
        "featureKind": "named-coordinate-line",
        "coordinateType": "Longitude / Meridian",
        "line": "90° E",
        "name": "Ishtanora's Hearth Meridian",
        "longitude": 90.0,
        "latitude": null,
        "isUTCPrimeMeridian": false,
        "isAntimeridian": false,
        "source": "user-specified line table"
      },
      "geometry": {
        "type": "LineString",
        "coordinates": [
          [
            90.0,
            -90
          ],
          [
            90.0,
            90
          ]
        ]
      }
    },
    {
      "type": "Feature",
      "properties": {
        "featureKind": "named-coordinate-line",
        "coordinateType": "Longitude / Meridian",
        "line": "120° E",
        "name": "Marduthor's Deepforge Meridian",
        "longitude": 120.0,
        "latitude": null,
        "isUTCPrimeMeridian": false,
        "isAntimeridian": false,
        "source": "user-specified line table"
      },
      "geometry": {
        "type": "LineString",
        "coordinates": [
          [
            120.0,
            -90
          ],
          [
            120.0,
            90
          ]
        ]
      }
    },
    {
      "type": "Feature",
      "properties": {
        "featureKind": "named-coordinate-line",
        "coordinateType": "Longitude / Meridian",
        "line": "150° E",
        "name": "Valkhamesh's Thunder Meridian",
        "longitude": 150.0,
        "latitude": null,
        "isUTCPrimeMeridian": false,
        "isAntimeridian": false,
        "source": "user-specified line table"
      },
      "geometry": {
        "type": "LineString",
        "coordinates": [
          [
            150.0,
            -90
          ],
          [
            150.0,
            90
          ]
        ]
      }
    },
    {
      "type": "Feature",
      "properties": {
        "featureKind": "named-coordinate-line",
        "coordinateType": "Latitude / Parallel",
        "line": "60° N",
        "name": "Fleysetl's Northern Underworld Gate",
        "longitude": null,
        "latitude": 60.0,
        "isEquator": false,
        "source": "user-specified line table"
      },
      "geometry": {
        "type": "LineString",
        "coordinates": [
          [
            -180,
            60.0
          ],
          [
            180,
            60.0
          ]
        ]
      }
    },
    {
      "type": "Feature",
      "properties": {
        "featureKind": "named-coordinate-line",
        "coordinateType": "Latitude / Parallel",
        "line": "25° N",
        "name": "Raeshkul's Thoughtline",
        "longitude": null,
        "latitude": 25.0,
        "isEquator": false,
        "source": "user-specified line table"
      },
      "geometry": {
        "type": "LineString",
        "coordinates": [
          [
            -180,
            25.0
          ],
          [
            180,
            25.0
          ]
        ]
      }
    },
    {
      "type": "Feature",
      "properties": {
        "featureKind": "named-coordinate-line",
        "coordinateType": "Latitude / Parallel",
        "line": "0°",
        "name": "Equator",
        "longitude": null,
        "latitude": 0.0,
        "isEquator": true,
        "source": "user-specified line table"
      },
      "geometry": {
        "type": "LineString",
        "coordinates": [
          [
            -180,
            0.0
          ],
          [
            180,
            0.0
          ]
        ]
      }
    },
    {
      "type": "Feature",
      "properties": {
        "featureKind": "named-coordinate-line",
        "coordinateType": "Latitude / Parallel",
        "line": "30° S",
        "name": "Bastveg's Deepwater Passage",
        "longitude": null,
        "latitude": -30.0,
        "isEquator": false,
        "source": "user-specified line table"
      },
      "geometry": {
        "type": "LineString",
        "coordinates": [
          [
            -180,
            -30.0
          ],
          [
            180,
            -30.0
          ]
        ]
      }
    },
    {
      "type": "Feature",
      "properties": {
        "featureKind": "named-coordinate-line",
        "coordinateType": "Latitude / Parallel",
        "line": "65° S",
        "name": "Thoryn-Rahek's Southern Underworld Gate",
        "longitude": null,
        "latitude": -65.0,
        "isEquator": false,
        "source": "user-specified line table"
      },
      "geometry": {
        "type": "LineString",
        "coordinates": [
          [
            -180,
            -65.0
          ],
          [
            180,
            -65.0
          ]
        ]
      }
    }
  ]
}